{
  "source": "omm_python_reference_self_validates",
  "fixtures": [
    {
      "name": "NAVSTAR 43",
      "kvn_fixture": "tests/fixtures/omm/24876.kvn",
      "xml_fixture": "tests/fixtures/omm/24876.xml",
      "json_fixture": "tests/fixtures/omm/24876.json",
      "from_kvn": {
        "ccsds_omm_vers": "2.0",
        "creation_date": null,
        "originator": null,
        "object_name": "NAVSTAR 43 (USA 132)",
        "object_id": "1997-035A",
        "center_name": "EARTH",
        "ref_frame": "TEME",
        "time_system": "UTC",
        "mean_element_theory": "SGP/SGP4",
        "epoch": {
          "year": 2026,
          "month": 6,
          "day": 16,
          "hour": 4,
          "minute": 54,
          "second": 23,
          "microsecond": 504544,
          "iso8601": "2026-06-16T04:54:23.504544"
        },
        "mean_motion_hex": "0x40000b8bc8a0983b",
        "eccentricity_hex": "0x3f84fae93fca1a6b",
        "inclination_deg_hex": "0x404bff487fcb923a",
        "ra_of_asc_node_deg_hex": "0x4058a7487fcb923a",
        "arg_of_pericenter_deg_hex": "0x404c745d63886595",
        "mean_anomaly_deg_hex": "0x407300be0ded288d",
        "ephemeris_type": 0,
        "classification_type": "U",
        "norad_cat_id": 24876,
        "element_set_no": 999,
        "rev_at_epoch": 21193,
        "bstar_hex": "0x0000000000000000",
        "mean_motion_dot_hex": "0xbe801b2b29a4692b",
        "mean_motion_ddot_hex": "0x0000000000000000"
      },
      "from_xml": {
        "ccsds_omm_vers": "2.0",
        "creation_date": null,
        "originator": null,
        "object_name": "NAVSTAR 43 (USA 132)",
        "object_id": "1997-035A",
        "center_name": "EARTH",
        "ref_frame": "TEME",
        "time_system": "UTC",
        "mean_element_theory": "SGP4",
        "epoch": {
          "year": 2026,
          "month": 6,
          "day": 16,
          "hour": 4,
          "minute": 54,
          "second": 23,
          "microsecond": 504544,
          "iso8601": "2026-06-16T04:54:23.504544"
        },
        "mean_motion_hex": "0x40000b8bc8a0983b",
        "eccentricity_hex": "0x3f84fae93fca1a6b",
        "inclination_deg_hex": "0x404bff487fcb923a",
        "ra_of_asc_node_deg_hex": "0x4058a7487fcb923a",
        "arg_of_pericenter_deg_hex": "0x404c745d63886595",
        "mean_anomaly_deg_hex": "0x407300be0ded288d",
        "ephemeris_type": 0,
        "classification_type": "U",
        "norad_cat_id": 24876,
        "element_set_no": 999,
        "rev_at_epoch": 21193,
        "bstar_hex": "0x0000000000000000",
        "mean_motion_dot_hex": "0xbe801b2b29a4692b",
        "mean_motion_ddot_hex": "0x0000000000000000"
      },
      "from_json": {
        "ccsds_omm_vers": "2.0",
        "creation_date": null,
        "originator": null,
        "object_name": "NAVSTAR 43 (USA 132)",
        "object_id": "1997-035A",
        "center_name": null,
        "ref_frame": null,
        "time_system": null,
        "mean_element_theory": null,
        "epoch": {
          "year": 2026,
          "month": 6,
          "day": 16,
          "hour": 4,
          "minute": 54,
          "second": 23,
          "microsecond": 504544,
          "iso8601": "2026-06-16T04:54:23.504544"
        },
        "mean_motion_hex": "0x40000b8bc8a0983b",
        "eccentricity_hex": "0x3f84fae93fca1a6b",
        "inclination_deg_hex": "0x404bff487fcb923a",
        "ra_of_asc_node_deg_hex": "0x4058a7487fcb923a",
        "arg_of_pericenter_deg_hex": "0x404c745d63886595",
        "mean_anomaly_deg_hex": "0x407300be0ded288d",
        "ephemeris_type": 0,
        "classification_type": "U",
        "norad_cat_id": 24876,
        "element_set_no": 999,
        "rev_at_epoch": 21193,
        "bstar_hex": "0x0000000000000000",
        "mean_motion_dot_hex": "0xbe801b2b29a4692b",
        "mean_motion_ddot_hex": "0x0000000000000000"
      },
      "encoded_kvn": "CCSDS_OMM_VERS = 2.0\nCREATION_DATE = \nORIGINATOR = \nOBJECT_NAME = NAVSTAR 43 (USA 132)\nOBJECT_ID = 1997-035A\nCENTER_NAME = EARTH\nREF_FRAME = TEME\nTIME_SYSTEM = UTC\nMEAN_ELEMENT_THEORY = SGP/SGP4\nEPOCH = 2026-06-16T04:54:23.504544\nMEAN_MOTION = 2.00563771\nECCENTRICITY = 0.0102442\nINCLINATION = 55.9944\nRA_OF_ASC_NODE = 98.6138\nARG_OF_PERICENTER = 56.9091\nMEAN_ANOMALY = 304.0464\nEPHEMERIS_TYPE = 0\nCLASSIFICATION_TYPE = U\nNORAD_CAT_ID = 24876\nELEMENT_SET_NO = 999\nREV_AT_EPOCH = 21193\nBSTAR = 0\nMEAN_MOTION_DOT = -0.00000012\nMEAN_MOTION_DDOT = 0\n",
      "encoded_xml": "<?xml version=\"1.0\" encoding=\"UTF-8\"?>\n<ndm>\n<omm id=\"CCSDS_OMM_VERS\" version=\"2.0\">\n<header><CREATION_DATE></CREATION_DATE><ORIGINATOR></ORIGINATOR></header>\n<body><segment>\n<metadata><OBJECT_NAME>NAVSTAR 43 (USA 132)</OBJECT_NAME><OBJECT_ID>1997-035A</OBJECT_ID><CENTER_NAME>EARTH</CENTER_NAME><REF_FRAME>TEME</REF_FRAME><TIME_SYSTEM>UTC</TIME_SYSTEM><MEAN_ELEMENT_THEORY>SGP4</MEAN_ELEMENT_THEORY></metadata>\n<data>\n<meanElements><EPOCH>2026-06-16T04:54:23.504544</EPOCH><MEAN_MOTION>2.00563771</MEAN_MOTION><ECCENTRICITY>0.0102442</ECCENTRICITY><INCLINATION>55.9944</INCLINATION><RA_OF_ASC_NODE>98.6138</RA_OF_ASC_NODE><ARG_OF_PERICENTER>56.9091</ARG_OF_PERICENTER><MEAN_ANOMALY>304.0464</MEAN_ANOMALY></meanElements>\n<tleParameters><EPHEMERIS_TYPE>0</EPHEMERIS_TYPE><CLASSIFICATION_TYPE>U</CLASSIFICATION_TYPE><NORAD_CAT_ID>24876</NORAD_CAT_ID><ELEMENT_SET_NO>999</ELEMENT_SET_NO><REV_AT_EPOCH>21193</REV_AT_EPOCH><BSTAR>0</BSTAR><MEAN_MOTION_DOT>-0.00000012</MEAN_MOTION_DOT><MEAN_MOTION_DDOT>0</MEAN_MOTION_DDOT></tleParameters>\n</data>\n</segment></body>\n</omm>\n</ndm>\n",
      "encoded_json": "{\"CCSDS_OMM_VERS\":\"2.0\",\"CREATION_DATE\":null,\"ORIGINATOR\":null,\"OBJECT_NAME\":\"NAVSTAR 43 (USA 132)\",\"OBJECT_ID\":\"1997-035A\",\"CENTER_NAME\":null,\"REF_FRAME\":null,\"TIME_SYSTEM\":null,\"MEAN_ELEMENT_THEORY\":null,\"EPOCH\":\"2026-06-16T04:54:23.504544\",\"MEAN_MOTION\":2.00563771,\"ECCENTRICITY\":0.0102442,\"INCLINATION\":55.9944,\"RA_OF_ASC_NODE\":98.6138,\"ARG_OF_PERICENTER\":56.9091,\"MEAN_ANOMALY\":304.0464,\"EPHEMERIS_TYPE\":0,\"CLASSIFICATION_TYPE\":\"U\",\"NORAD_CAT_ID\":24876,\"ELEMENT_SET_NO\":999,\"REV_AT_EPOCH\":21193,\"BSTAR\":0.0,\"MEAN_MOTION_DOT\":-1.2e-7,\"MEAN_MOTION_DDOT\":0.0}"
    }
  ]
}